{
  "type": "FeatureCollection",
  "features": [
    {
      "type": "Feature",
      "properties": {
        "norad_id": 66891,
        "name": "STARLINK-35855",
        "group": "last-30-days",
        "lat": -46.502123695272644,
        "lon": -21.82126664962931,
        "alt_km": 352.4455516252201,
        "timestamp": "2025-12-21T09:37:21.373603+00:00",
        "meta_object_name": "STARLINK-35855",
        "meta_object_id": "2025-283P",
        "meta_epoch": "2025-12-21T04:00:01.998720",
        "meta_mean_motion": 15.74196019,
        "meta_eccentricity": 0.0001341,
        "meta_inclination": 53.1576,
        "meta_ra_of_asc_node": 31.544,
        "meta_arg_of_pericenter": 96.4841,
        "meta_mean_anomaly": 310.2227,
        "meta_ephemeris_type": 0,
        "meta_classification_type": "U",
        "meta_norad_cat_id": 66891,
        "meta_element_set_no": 999,
        "meta_rev_at_epoch": 378,
        "meta_bstar": -0.00021221,
        "meta_mean_motion_dot": -0.00031601,
        "meta_mean_motion_ddot": 0,
        "tle_line1": "1 66891U 25283P   25355.16668980 -.00031601  00000+0 -21221-3 0  9997",
        "tle_line2": "2 66891  53.1576  31.5440 0001341  96.4841 310.2227 15.74196019  3785"
      },
      "geometry": {
        "type": "Point",
        "coordinates": [
          -21.82126664962931,
          -46.502123695272644
        ]
      }
    },
    {
      "type": "Feature",
      "properties": {
        "norad_id": 66892,
        "name": "STARLINK-35883",
        "group": "last-30-days",
        "lat": -45.539459338322594,
        "lon": -19.445822249203555,
        "alt_km": 352.20661605908936,
        "timestamp": "2025-12-21T09:37:21.373614+00:00",
        "meta_object_name": "STARLINK-35883",
        "meta_object_id": "2025-283Q",
        "meta_epoch": "2025-12-21T04:00:01.998720",
        "meta_mean_motion": 15.74205803,
        "meta_eccentricity": 0.0001181,
        "meta_inclination": 53.1577,
        "meta_ra_of_asc_node": 31.5395,
        "meta_arg_of_pericenter": 81.3399,
        "meta_mean_anomaly": 327.2813,
        "meta_ephemeris_type": 0,
        "meta_classification_type": "U",
        "meta_norad_cat_id": 66892,
        "meta_element_set_no": 999,
        "meta_rev_at_epoch": 372,
        "meta_bstar": -0.00034847,
        "meta_mean_motion_dot": -0.0005139,
        "meta_mean_motion_ddot": 0,
        "tle_line1": "1 66892U 25283Q   25355.16668980 -.00051390  00000+0 -34847-3 0  9993",
        "tle_line2": "2 66892  53.1577  31.5395 0001181  81.3399 327.2813 15.74205803  3724"
      },
      "geometry": {
        "type": "Point",
        "coordinates": [
          -19.445822249203555,
          -45.539459338322594
        ]
      }
    },
    {
      "type": "Feature",
      "properties": {
        "norad_id": 66893,
        "name": "STARLINK-36033",
        "group": "last-30-days",
        "lat": -44.52414984997661,
        "lon": -17.14128938501718,
        "alt_km": 352.28954270111444,
        "timestamp": "2025-12-21T09:37:21.373627+00:00",
        "meta_object_name": "STARLINK-36033",
        "meta_object_id": "2025-283R",
        "meta_epoch": "2025-12-21T04:00:01.998720",
        "meta_mean_motion": 15.74193994,
        "meta_eccentricity": 0.0001238,
        "meta_inclination": 53.1578,
        "meta_ra_of_asc_node": 31.5354,
        "meta_arg_of_pericenter": 95.4256,
        "meta_mean_anomaly": 315.1237,
        "meta_ephemeris_type": 0,
        "meta_classification_type": "U",
        "meta_norad_cat_id": 66893,
        "meta_element_set_no": 999,
        "meta_rev_at_epoch": 378,
        "meta_bstar": -0.00019755,
        "meta_mean_motion_dot": -0.00029466,
        "meta_mean_motion_ddot": 0,
        "tle_line1": "1 66893U 25283R   25355.16668980 -.00029466  00000+0 -19755-3 0  9994",
        "tle_line2": "2 66893  53.1578  31.5354 0001238  95.4256 315.1237 15.74193994  3781"
      },
      "geometry": {
        "type": "Point",
        "coordinates": [
          -17.14128938501718,
          -44.52414984997661
        ]
      }
    },
    {
      "type": "Feature",
      "properties": {
        "norad_id": 66894,
        "name": "STARLINK-35718",
        "group": "last-30-days",
        "lat": -43.47117937051162,
        "lon": -14.93193522820627,
        "alt_km": 352.1528182330676,
        "timestamp": "2025-12-21T09:37:21.373637+00:00",
        "meta_object_name": "STARLINK-35718",
        "meta_object_id": "2025-283S",
        "meta_epoch": "2025-12-21T04:00:01.998720",
        "meta_mean_motion": 15.74202675,
        "meta_eccentricity": 0.000118,
        "meta_inclination": 53.1577,
        "meta_ra_of_asc_node": 31.532,
        "meta_arg_of_pericenter": 88.579,
        "meta_mean_anomaly": 323.8786,
        "meta_ephemeris_type": 0,
        "meta_classification_type": "U",
        "meta_norad_cat_id": 66894,
        "meta_element_set_no": 999,
        "meta_rev_at_epoch": 378,
        "meta_bstar": -0.0002849,
        "meta_mean_motion_dot": -0.0004217,
        "meta_mean_motion_ddot": 0,
        "tle_line1": "1 66894U 25283S   25355.16668980 -.00042170  00000+0 -28490-3 0  9998",
        "tle_line2": "2 66894  53.1577  31.5320 0001180  88.5790 323.8786 15.74202675  3788"
      },
      "geometry": {
        "type": "Point",
        "coordinates": [
          -14.93193522820627,
          -43.47117937051162
        ]
      }
    },
    {
      "type": "Feature",
      "properties": {
        "norad_id": 66895,
        "name": "STARLINK-35971",
        "group": "last-30-days",
        "lat": -41.23375110790226,
        "lon": -10.724798287587648,
        "alt_km": 352.1847538400234,
        "timestamp": "2025-12-21T09:37:21.373649+00:00",
        "meta_object_name": "STARLINK-35971",
        "meta_object_id": "2025-283T",
        "meta_epoch": "2025-12-21T04:00:01.998720",
        "meta_mean_motion": 15.7420584,
        "meta_eccentricity": 0.0001252,
        "meta_inclination": 53.1579,
        "meta_ra_of_asc_node": 31.5226,
        "meta_arg_of_pericenter": 101.6647,
        "meta_mean_anomaly": 314.6338,
        "meta_ephemeris_type": 0,
        "meta_classification_type": "U",
        "meta_norad_cat_id": 66895,
        "meta_element_set_no": 999,
        "meta_rev_at_epoch": 378,
        "meta_bstar": -0.00041865,
        "meta_mean_motion_dot": -0.0006154,
        "meta_mean_motion_ddot": 0,
        "tle_line1": "1 66895U 25283T   25355.16668980 -.00061540  00000+0 -41865-3 0  9992",
        "tle_line2": "2 66895  53.1579  31.5226 0001252 101.6647 314.6338 15.74205840  3782"
      },
      "geometry": {
        "type": "Point",
        "coordinates": [
          -10.724798287587648,
          -41.23375110790226
        ]
      }
    },
    {
      "type": "Feature",
      "properties": {
        "norad_id": 66896,
        "name": "STARLINK-35791",
        "group": "last-30-days",
        "lat": -42.37385893465446,
        "lon": -12.79524494375732,
        "alt_km": 352.18082983007935,
        "timestamp": "2025-12-21T09:37:21.373659+00:00",
        "meta_object_name": "STARLINK-35791",
        "meta_object_id": "2025-283U",
        "meta_epoch": "2025-12-21T04:00:01.998720",
        "meta_mean_motion": 15.74207733,
        "meta_eccentricity": 0.0001217,
        "meta_inclination": 53.1577,
        "meta_ra_of_asc_node": 31.527,
        "meta_arg_of_pericenter": 99.0053,
        "meta_mean_anomaly": 315.3646,
        "meta_ephemeris_type": 0,
        "meta_classification_type": "U",
        "meta_norad_cat_id": 66896,
        "meta_element_set_no": 999,
        "meta_rev_at_epoch": 378,
        "meta_bstar": -0.00032559,
        "meta_mean_motion_dot": -0.00048081,
        "meta_mean_motion_ddot": 0,
        "tle_line1": "1 66896U 25283U   25355.16668980 -.00048081  00000+0 -32559-3 0  9998",
        "tle_line2": "2 66896  53.1577  31.5270 0001217  99.0053 315.3646 15.74207733  3785"
      },
      "geometry": {
        "type": "Point",
        "coordinates": [
          -12.79524494375732,
          -42.37385893465446
        ]
      }
    },
    {
      "type": "Feature",
      "properties": {
        "norad_id": 66897,
        "name": "STARLINK-36079",
        "group": "last-30-days",
        "lat": -40.06706948634324,
        "lon": -8.742022096499564,
        "alt_km": 352.00113910756863,
        "timestamp": "2025-12-21T09:37:21.373671+00:00",
        "meta_object_name": "STARLINK-36079",
        "meta_object_id": "2025-283V",
        "meta_epoch": "2025-12-21T04:00:01.998720",
        "meta_mean_motion": 15.74194478,
        "meta_eccentricity": 0.0001094,
        "meta_inclination": 53.1576,
        "meta_ra_of_asc_node": 31.5191,
        "meta_arg_of_pericenter": 96.1968,
        "meta_mean_anomaly": 322.0169,
        "meta_ephemeris_type": 0,
        "meta_classification_type": "U",
        "meta_norad_cat_id": 66897,
        "meta_element_set_no": 999,
        "meta_rev_at_epoch": 378,
        "meta_bstar": -0.00028983,
        "meta_mean_motion_dot": -0.0004287,
        "meta_mean_motion_ddot": 0,
        "tle_line1": "1 66897U 25283V   25355.16668980 -.00042870  00000+0 -28983-3 0  9995",
        "tle_line2": "2 66897  53.1576  31.5191 0001094  96.1968 322.0169 15.74194478  3789"
      },
      "geometry": {
        "type": "Point",
        "coordinates": [
          -8.742022096499564,
          -40.06706948634324
        ]
      }
    }
  ]
}